GSAT0216 (GALILEO 20)   
1 43056U 17079B   26181.79809324  .00000074  00000+0  00000+0 0  9991
2 43056  55.0708 221.1319 0004686 276.4690  83.5705  1.70474719 53233
GSAT0217 (GALILEO 21)   
1 43057U 17079C   26177.32624419  .00000063  00000+0  00000+0 0  9994
2 43057  55.0685 221.2528 0003945 287.8828  72.1663  1.70474719 53144
GSAT0218 (GALILEO 22)   
1 43058U 17079D   26181.06581224  .00000073  00000+0  00000+0 0  9998
2 43058  55.0690 221.1474 0006165 274.7055  85.3194  1.70474397 53231
BEIDOU-3 M7             
1 43107U 18003A   26180.70062182 -.00000077  00000+0  00000+0 0  9993
2 43107  54.3155 301.8783 0004638  96.3003 263.7573  1.86228407 57588
BEIDOU-3 M8             
1 43108U 18003B   26180.10824274 -.00000081  00000+0  00000+0 0  9991
2 43108  54.3090 301.8814 0002749 259.2920 100.6793  1.86231229 57580
BEIDOU-3 M4             
1 43207U 18018A   26181.08829659 -.00000050  00000+0  00000+0 0  9993
2 43207  56.6620  62.7232 0007448  23.9137 336.1827  1.86231543 56984
BEIDOU-3 M3             
1 43208U 18018B   26180.08086542 -.00000059  00000+0  00000+0 0  9998
2 43208  56.6611  62.7601 0008125 342.8651  17.1644  1.86231367 56967
BEIDOU-3 M9             
1 43245U 18029A   26178.68786010 -.00000090  00000+0  00000+0 0  9996
2 43245  54.1834 299.5811 0000937 166.7829 193.2191  1.86228615 56093
BEIDOU-3 M10            
1 43246U 18029B   26180.23304141 -.00000077  00000+0  00000+0 0  9997
2 43246  54.1795 299.5537 0003604  39.0679 320.9640  1.86229560 56104
IRNSS-1I                
1 43286U 18035A   26179.79558490  .00000066  00000+0  00000+0 0  9992
2 43286  28.7805  74.0157 0017671 182.6115   1.5908  1.00277388 30197
COSMOS 2527 [GLONASS-M] 
1 43508U 18053A   26178.87771987 -.00000045  00000+0  00000+0 0  9993
2 43508  65.5836  73.5506 0006813 236.4648 123.5150  2.13102103 62505
BEIDOU-2 IGSO-7         
1 43539U 18057A   26181.48163089 -.00000036  00000+0  00000+0 0  9990
2 43539  55.1979 162.9413 0104797 237.9284 159.8469  1.00247568 29265
GSAT0221 (GALILEO 25)   
1 43564U 18060A   26181.55638997 -.00000084  00000+0  00000+0 0  9998
2 43564  57.1650 341.4198 0002515 295.2053  64.7596  1.70476315 49393
GSAT0222 (GALILEO 26)   
1 43565U 18060B   26181.18948157 -.00000085  00000+0  00000+0 0  9991
2 43565  57.1685 341.4334 0002350 238.6565 121.3116  1.70476047 49435
GSAT0219 (GALILEO 23)   
1 43566U 18060C   26180.23718781 -.00000088  00000+0  00000+0 0  9998
2 43566  57.1683 341.4605 0001765 310.7488  49.2272  1.70476318 49397
GSAT0220 (GALILEO 24)   
1 43567U 18060D   26181.04476868 -.00000086  00000+0  00000+0 0  9994
2 43567  57.1670 341.4391 0001915 299.6424  60.3296  1.70476251 49394
BEIDOU-3 M5             
1 43581U 18062A   26180.99399922  .00000070  00000+0  00000+0 0  9992
2 43581  54.0863 181.8686 0005715 291.8380  68.1144  1.86228884 53870
BEIDOU-3 M6             
1 43582U 18062B   26178.70971725  .00000085  00000+0  00000+0 0  9992
2 43582  54.0860 181.9355 0005105   8.8787 351.1552  1.86227843 53830
BEIDOU-3 M12            
1 43602U 18067A   26181.33290510  .00000068  00000+0  00000+0 0  9990
2 43602  54.1812 180.5941 0007882  29.9237 330.1298  1.86227822 53364
BEIDOU-3 M11            
1 43603U 18067B   26181.46800479  .00000068  00000+0  00000+0 0  9996
2 43603  54.1785 180.5532 0004606  13.1016 346.9180  1.86227290 53398
BEIDOU-3 M13            
1 43622U 18072A   26179.81193119 -.00000062  00000+0  00000+0 0  9990
2 43622  56.6350  62.2756 0006942 330.4387  29.5780  1.86231457 52871
BEIDOU-3 M14            
1 43623U 18072B   26181.28824336 -.00000049  00000+0  00000+0 0  9992
2 43623  56.6378  62.2212 0005864   5.3649 354.7045  1.86231462 52895
BEIDOU-3 M16            
1 43647U 18078A   26181.44336447 -.00000069  00000+0  00000+0 0  9995
2 43647  54.0771 299.5213 0006891  40.4774 319.5856  1.86232447 52406
BEIDOU-3 M15            
1 43648U 18078B   26181.03569111 -.00000071  00000+0  00000+0 0  9990
2 43648  54.0730 299.5360 0003881  58.0730 301.9745  1.86232575 52413
BEIDOU-3 G1             
1 43683U 18085A   26181.76076392 -.00000101  00000+0  00000+0 0  9995
2 43683   2.9019  97.0109 0008571 352.8021 262.8054  1.00271136 28193
COSMOS 2529 [GLONASS-M] 
1 43687U 18086A   26180.38188307  .00000086  00000+0  00000+0 0  9998
2 43687  64.2959 192.1827 0012122 256.5039 103.4062  2.13102097 59547
BEIDOU-3 M17            
1 43706U 18093A   26181.72970282  .00000069  00000+0  00000+0 0  9999
2 43706  54.1700 181.8368 0010166 292.9886  63.8528  1.86228547 51788
BEIDOU-3 M18            
1 43707U 18093B   26181.06086973  .00000070  00000+0  00000+0 0  9994
2 43707  54.1707 181.8515 0008089 321.6301  38.3251  1.86226728 51771
NAVSTAR 77 (USA 289)    
1 43873U 18109A   26180.99359069 -.00000033  00000+0  00000+0 0  9996
2 43873  55.6890  91.6817 0038519 197.6433 172.9146  2.00562470 55333
BEIDOU-3 IGSO-1         
1 44204U 19023A   26179.48568773 -.00000206  00000+0  00000+0 0  9999
2 44204  58.7105  37.5330 0025746 224.4783 307.9858  1.00288999  7325
BEIDOU-2 G8             
1 44231U 19027A   26181.82897117 -.00000239  00000+0  00000+0 0  9997
2 44231   1.6917  74.5216 0009714 285.2318   2.0038  1.00267884 26215
